OBJECT_NAME,OBJECT_ID,EPOCH,MEAN_MOTION,ECCENTRICITY,INCLINATION,RA_OF_ASC_NODE,ARG_OF_PERICENTER,MEAN_ANOMALY,EPHEMERIS_TYPE,CLASSIFICATION_TYPE,NORAD_CAT_ID,ELEMENT_SET_NO,REV_AT_EPOCH,BSTAR,MEAN_MOTION_DOT,MEAN_MOTION_DDOT
ONEWEB-0012,2019-010A,2026-06-27T05:00:37.882656,13.16595598,.00018041,87.9088,226.7953,86.2944,273.8394,0,U,44057,999,35288,.36930968E-3,.154E-5,0
ONEWEB-0010,2019-010B,2026-06-27T03:47:40.488000,13.16595538,.00020526,87.9089,226.8007,105.7402,254.3955,0,U,44058,999,35292,-.20274673E-3,-.65E-6,0
ONEWEB-0008,2019-010C,2026-06-27T04:24:08.240544,13.16595294,.00023386,87.9087,226.7914,93.5641,266.5758,0,U,44059,999,35304,-.18734945E-3,-.59E-6,0
ONEWEB-0007,2019-010D,2026-06-27T05:26:09.291552,13.15549539,.00017238,87.8999,257.2211,103.3012,256.8310,0,U,44060,999,35269,-.82713597E-4,-.18E-6,0
ONEWEB-0006,2019-010E,2026-06-27T05:31:52.201056,13.15536300,.00021046,87.9011,257.1856,103.9404,256.1961,0,U,44061,999,35274,-.21280185E-2,-.788E-5,0
ONEWEB-0011,2019-010F,2026-06-27T06:35:44.539584,13.15548186,.00021946,87.9008,257.1866,102.6250,257.5126,0,U,44062,999,35274,.25098243E-3,.107E-5,0
ONEWEB-0013,2020-008A,2026-06-27T04:19:02.052768,13.09456145,.00018215,87.8506,50.8085,51.2730,308.8559,0,U,45131,999,30737,.20886724E-2,.732E-5,0
ONEWEB-0017,2020-008B,2026-06-27T03:43:39.964224,13.10362633,.00018174,87.8821,34.2831,92.5022,267.6313,0,U,45132,999,30925,-.97050148E-3,-.326E-5,0
ONEWEB-0020,2020-008C,2026-06-27T02:59:39.130944,13.10374081,.00018604,87.8829,34.2876,84.1030,276.0310,0,U,45133,999,30964,.19358081E-2,.688E-5,0
ONEWEB-0021,2020-008D,2026-06-27T03:21:37.989792,13.10371525,.00017182,87.8820,34.2999,85.7588,274.3736,0,U,45134,999,30995,.11820635E-2,.425E-5,0
ONEWEB-0023,2020-008F,2026-06-27T03:37:32.403936,13.10373411,.0001945,87.8826,34.2805,80.3280,279.8067,0,U,45136,999,30938,-.36815325E-3,-.116E-5,0
ONEWEB-0024,2020-008G,2026-06-27T02:57:23.062176,13.10374154,.00018153,87.8838,34.2789,86.4009,273.7326,0,U,45137,999,30954,.96737859E-3,.35E-5,0
ONEWEB-0025,2020-008H,2026-06-27T01:07:02.479872,13.10374058,.00023188,87.8841,34.2841,87.0780,273.0613,0,U,45138,999,30986,.14127223E-2,.506E-5,0
ONEWEB-0026,2020-008J,2026-06-27T05:30:49.527360,13.11418643,.00019093,87.8880,19.0686,91.8514,268.2832,0,U,45139,999,31242,.13207048E-2,.481E-5,0
ONEWEB-0028,2020-008K,2026-06-27T06:45:16.396128,13.11415841,.0001727,87.8876,19.0663,68.9839,291.1474,0,U,45140,999,30994,-.16948047E-2,-.588E-5,0
ONEWEB-0032,2020-008L,2026-06-27T03:46:16.475232,13.10368686,.00018618,87.8821,34.2844,69.9681,290.1646,0,U,45141,999,30960,-.94931665E-3,-.319E-5,0
ONEWEB-0033,2020-008M,2026-06-27T03:09:25.303968,13.10373283,.00018832,87.8822,34.2958,100.6523,259.4817,0,U,45142,999,30951,.17177644E-2,.612E-5,0
ONEWEB-0035,2020-008N,2026-06-27T01:48:58.180032,13.10373395,.00018608,87.8820,34.3004,88.5367,271.5973,0,U,45143,999,30923,-.91746656E-3,-.308E-5,0
ONEWEB-0036,2020-008P,2026-06-27T03:06:44.659584,13.10254647,.00017017,87.8839,34.3039,76.9528,283.1789,0,U,45144,999,30966,.60319529E-1,.21081E-3,0
ONEWEB-0038,2020-008Q,2026-06-27T02:05:56.664960,13.11415998,.00005417,87.8896,19.1070,154.5830,205.5325,0,U,45145,999,31162,.16535994E-2,.599E-5,0
ONEWEB-0039,2020-008R,2026-06-27T06:54:13.607136,13.10371074,.00016843,87.8822,34.2552,69.3335,290.7973,0,U,45146,999,30948,.16512401E-2,.589E-5,0
ONEWEB-0040,2020-008S,2026-06-26T14:14:49.375392,13.10379056,.0001874,87.8830,34.4062,75.8579,284.2757,0,U,45147,999,30909,.20668E-2,.734E-5,0
ONEWEB-0043,2020-008U,2026-06-27T03:07:04.613664,13.10335197,.00015567,87.8829,34.2857,65.6702,294.4587,0,U,45149,999,30948,.18563191E-2,.66E-5,0
ONEWEB-0044,2020-008V,2026-06-27T03:48:32.898240,13.10362686,.00018739,87.8827,34.2819,80.6900,279.4439,0,U,45150,999,30978,.34015883E-2,.12E-4,0
ONEWEB-0045,2020-008W,2026-06-27T01:58:25.286304,13.11417291,.00017362,87.8891,19.0901,84.5660,275.5666,0,U,45151,999,31170,.155976E-2,.566E-5,0
ONEWEB-0047,2020-008X,2026-06-27T03:38:31.776288,13.10373667,.00016723,87.8829,34.2819,90.9129,269.2190,0,U,45152,999,30950,-.60898969E-3,-.2E-5,0
ONEWEB-0048,2020-008Y,2026-06-27T03:31:25.023360,13.10377953,.00018109,87.8821,34.3033,86.7744,273.3591,0,U,45153,999,30911,-.35297702E-2,-.1219E-4,0
ONEWEB-0049,2020-008Z,2026-06-27T03:36:05.390496,13.10373265,.00021785,87.8818,34.2919,79.2158,280.9214,0,U,45154,999,30933,-.43916675E-3,-.141E-5,0
ONEWEB-0051,2020-008AA,2026-06-27T01:55:59.841408,13.11418834,.00018517,87.8884,19.0972,86.9196,273.2144,0,U,45155,999,31238,.98399656E-3,.361E-5,0
ONEWEB-0052,2020-008AB,2026-06-27T04:05:51.044352,13.10358950,.000215,87.8830,34.2745,76.9247,283.2120,0,U,45156,999,30924,-.15161692E-2,-.516E-5,0
