ONEWEB-0012             
1 44057U 19010A   26178.20877179  .00000154  00000+0  36931-3 0  9990
2 44057  87.9088 226.7953 0001804  86.2944 273.8394 13.16595598352886
ONEWEB-0010             
1 44058U 19010B   26178.15810750 -.00000065  00000+0 -20275-3 0  9994
2 44058  87.9089 226.8007 0002052 105.7402 254.3955 13.16595538352927
ONEWEB-0008             
1 44059U 19010C   26178.18342871 -.00000059  00000+0 -18735-3 0  9993
2 44059  87.9087 226.7914 0002338  93.5641 266.5758 13.16595294353047
ONEWEB-0007             
1 44060U 19010D   26178.22649643 -.00000018  00000+0 -82714-4 0  9991
2 44060  87.8999 257.2211 0001723 103.3012 256.8310 13.15549539352694
ONEWEB-0006             
1 44061U 19010E   26178.23046529 -.00000788  00000+0 -21280-2 0  9990
2 44061  87.9011 257.1856 0002104 103.9404 256.1961 13.15536300352743
ONEWEB-0011             
1 44062U 19010F   26178.27482106  .00000107  00000+0  25098-3 0  9995
2 44062  87.9008 257.1866 0002194 102.6250 257.5126 13.15548186352748
ONEWEB-0013             
1 45131U 20008A   26178.17988487  .00000732  00000+0  20887-2 0  9998
2 45131  87.8506  50.8085 0001821  51.2730 308.8559 13.09456145307372
ONEWEB-0017             
1 45132U 20008B   26178.15532366 -.00000326  00000+0 -97050-3 0  9996
2 45132  87.8821  34.2831 0001817  92.5022 267.6313 13.10362633309254
ONEWEB-0020             
1 45133U 20008C   26178.12475846  .00000688  00000+0  19358-2 0  9996
2 45133  87.8829  34.2876 0001860  84.1030 276.0310 13.10374081309640
ONEWEB-0021             
1 45134U 20008D   26178.14002303  .00000425  00000+0  11821-2 0  9999
2 45134  87.8820  34.2999 0001718  85.7588 274.3736 13.10371525309952
ONEWEB-0023             
1 45136U 20008F   26178.15106949 -.00000116  00000+0 -36815-3 0  9993
2 45136  87.8826  34.2805 0001945  80.3280 279.8067 13.10373411309388
ONEWEB-0024             
1 45137U 20008G   26178.12318359  .00000350  00000+0  96738-3 0  9999
2 45137  87.8838  34.2789 0001815  86.4009 273.7326 13.10374154309549
ONEWEB-0025             
1 45138U 20008H   26178.04655648  .00000506  00000+0  14127-2 0  9990
2 45138  87.8841  34.2841 0002318  87.0780 273.0613 13.10374058309865
ONEWEB-0026             
1 45139U 20008J   26178.22973990  .00000481  00000+0  13207-2 0  9994
2 45139  87.8880  19.0686 0001909  91.8514 268.2832 13.11418643312425
ONEWEB-0028             
1 45140U 20008K   26178.28143977 -.00000588  00000+0 -16948-2 0  9991
2 45140  87.8876  19.0663 0001727  68.9839 291.1474 13.11415841309947
ONEWEB-0032             
1 45141U 20008L   26178.15713513 -.00000319  00000+0 -94932-3 0  9999
2 45141  87.8821  34.2844 0001861  69.9681 290.1646 13.10368686309609
ONEWEB-0033             
1 45142U 20008M   26178.13154287  .00000612  00000+0  17178-2 0  9995
2 45142  87.8822  34.2958 0001883 100.6523 259.4817 13.10373283309516
ONEWEB-0035             
1 45143U 20008N   26178.07567338 -.00000308  00000+0 -91747-3 0  9993
2 45143  87.8820  34.3004 0001860  88.5367 271.5973 13.10373395309234
ONEWEB-0036             
1 45144U 20008P   26178.12968356  .00021081  00000+0  60320-1 0  9995
2 45144  87.8839  34.3039 0001701  76.9528 283.1789 13.10254647309666
ONEWEB-0038             
1 45145U 20008Q   26178.08746140  .00000599  00000+0  16536-2 0  9998
2 45145  87.8896  19.1070 0000541 154.5830 205.5325 13.11415998311628
ONEWEB-0039             
1 45146U 20008R   26178.28765749  .00000589  00000+0  16512-2 0  9990
2 45146  87.8822  34.2552 0001684  69.3335 290.7973 13.10371074309484
ONEWEB-0040             
1 45147U 20008S   26177.59362703  .00000734  00000+0  20668-2 0  9996
2 45147  87.8830  34.4062 0001874  75.8579 284.2757 13.10379056309098
ONEWEB-0043             
1 45149U 20008U   26178.12991451  .00000660  00000+0  18563-2 0  9995
2 45149  87.8829  34.2857 0001556  65.6702 294.4587 13.10335197309485
ONEWEB-0044             
1 45150U 20008V   26178.15871410  .00001200  00000+0  34016-2 0  9994
2 45150  87.8827  34.2819 0001873  80.6900 279.4439 13.10362686309787
ONEWEB-0045             
1 45151U 20008W   26178.08223711  .00000566  00000+0  15598-2 0  9990
2 45151  87.8891  19.0901 0001736  84.5660 275.5666 13.11417291311704
ONEWEB-0047             
1 45152U 20008X   26178.15175667 -.00000200  00000+0 -60899-3 0  9997
2 45152  87.8829  34.2819 0001672  90.9129 269.2190 13.10373667309507
ONEWEB-0048             
1 45153U 20008Y   26178.14681740 -.00001219  00000+0 -35298-2 0  9996
2 45153  87.8821  34.3033 0001810  86.7744 273.3591 13.10377953309119
ONEWEB-0049             
1 45154U 20008Z   26178.15006239 -.00000141  00000+0 -43917-3 0  9993
2 45154  87.8818  34.2919 0002178  79.2158 280.9214 13.10373265309334
ONEWEB-0051             
1 45155U 20008AA  26178.08055372  .00000361  00000+0  98400-3 0  9997
2 45155  87.8884  19.0972 0001851  86.9196 273.2144 13.11418834312381
ONEWEB-0052             
1 45156U 20008AB  26178.17072968 -.00000516  00000+0 -15162-2 0  9995
2 45156  87.8830  34.2745 0002150  76.9247 283.2120 13.10358950309246
